CCSDS_OMM_VERS = 2.0
CREATION_DATE  = 
ORIGINATOR     = 

OBJECT_NAME    = SL-14 R/B
OBJECT_ID      = 1991-042B
CENTER_NAME    = EARTH
REF_FRAME      = TEME
TIME_SYSTEM    = UTC
MEAN_ELEMENT_THEORY = SGP/SGP4

EPOCH          = 2026-03-05T16:56:54.580128
MEAN_MOTION    = 14.81824771
ECCENTRICITY   = .0015632
INCLINATION    = 82.4915
RA_OF_ASC_NODE = 223.9178
ARG_OF_PERICENTER = 252.8210
MEAN_ANOMALY   = 107.1293

EPHEMERIS_TYPE = 0
CLASSIFICATION_TYPE = U
NORAD_CAT_ID   = 21423
ELEMENT_SET_NO = 999
REV_AT_EPOCH   = 85248
BSTAR          = .83894E-4
MEAN_MOTION_DOT = .687E-5
MEAN_MOTION_DDOT = 0

CCSDS_OMM_VERS = 2.0
CREATION_DATE  = 
ORIGINATOR     = 

OBJECT_NAME    = ERS-1
OBJECT_ID      = 1991-050A
CENTER_NAME    = EARTH
REF_FRAME      = TEME
TIME_SYSTEM    = UTC
MEAN_ELEMENT_THEORY = SGP/SGP4

EPOCH          = 2026-03-05T15:58:35.442336
MEAN_MOTION    = 14.39445679
ECCENTRICITY   = .0031406
INCLINATION    = 98.7885
RA_OF_ASC_NODE = 82.7991
ARG_OF_PERICENTER = 212.5632
MEAN_ANOMALY   = 147.3618

EPHEMERIS_TYPE = 0
CLASSIFICATION_TYPE = U
NORAD_CAT_ID   = 21574
ELEMENT_SET_NO = 999
REV_AT_EPOCH   = 81515
BSTAR          = .15043E-3
MEAN_MOTION_DOT = .425E-5
MEAN_MOTION_DDOT = 0

CCSDS_OMM_VERS = 2.0
CREATION_DATE  = 
ORIGINATOR     = 

OBJECT_NAME    = ARIANE 40 R/B
OBJECT_ID      = 1991-050F
CENTER_NAME    = EARTH
REF_FRAME      = TEME
TIME_SYSTEM    = UTC
MEAN_ELEMENT_THEORY = SGP/SGP4

EPOCH          = 2026-03-05T15:45:53.331264
MEAN_MOTION    = 14.42890368
ECCENTRICITY   = .0004355
INCLINATION    = 98.2021
RA_OF_ASC_NODE = 117.0445
ARG_OF_PERICENTER = 90.0778
MEAN_ANOMALY   = 270.0912

EPHEMERIS_TYPE = 0
CLASSIFICATION_TYPE = U
NORAD_CAT_ID   = 21610
ELEMENT_SET_NO = 999
REV_AT_EPOCH   = 81841
BSTAR          = .14136E-3
MEAN_MOTION_DOT = .431E-5
MEAN_MOTION_DDOT = 0

CCSDS_OMM_VERS = 2.0
CREATION_DATE  = 
ORIGINATOR     = 

OBJECT_NAME    = INTERCOSMOS 25
OBJECT_ID      = 1991-086A
CENTER_NAME    = EARTH
REF_FRAME      = TEME
TIME_SYSTEM    = UTC
MEAN_ELEMENT_THEORY = SGP/SGP4

EPOCH          = 2026-03-05T16:40:56.389440
MEAN_MOTION    = 12.11987048
ECCENTRICITY   = .1487007
INCLINATION    = 82.6058
RA_OF_ASC_NODE = 312.4229
ARG_OF_PERICENTER = 125.5367
MEAN_ANOMALY   = 249.3693

EPHEMERIS_TYPE = 0
CLASSIFICATION_TYPE = U
NORAD_CAT_ID   = 21819
ELEMENT_SET_NO = 999
REV_AT_EPOCH   = 49620
BSTAR          = .31546E-3
MEAN_MOTION_DOT = .1644E-4
MEAN_MOTION_DDOT = 0

CCSDS_OMM_VERS = 2.0
CREATION_DATE  = 
ORIGINATOR     = 

OBJECT_NAME    = SL-8 R/B
OBJECT_ID      = 1992-008B
CENTER_NAME    = EARTH
REF_FRAME      = TEME
TIME_SYSTEM    = UTC
MEAN_ELEMENT_THEORY = SGP/SGP4

EPOCH          = 2026-03-05T15:36:20.374848
MEAN_MOTION    = 13.75969751
ECCENTRICITY   = .0035347
INCLINATION    = 82.9226
RA_OF_ASC_NODE = 270.7840
ARG_OF_PERICENTER = 144.3311
MEAN_ANOMALY   = 279.6722

EPHEMERIS_TYPE = 0
CLASSIFICATION_TYPE = U
NORAD_CAT_ID   = 21876
ELEMENT_SET_NO = 999
REV_AT_EPOCH   = 70886
BSTAR          = -.12834E-4
MEAN_MOTION_DOT = .3E-7
MEAN_MOTION_DDOT = 0

CCSDS_OMM_VERS = 2.0
CREATION_DATE  = 
ORIGINATOR     = 

OBJECT_NAME    = SL-8 R/B
OBJECT_ID      = 1992-020B
CENTER_NAME    = EARTH
REF_FRAME      = TEME
TIME_SYSTEM    = UTC
MEAN_ELEMENT_THEORY = SGP/SGP4

EPOCH          = 2026-03-05T16:52:11.342784
MEAN_MOTION    = 13.75548996
ECCENTRICITY   = .002781
INCLINATION    = 82.9341
RA_OF_ASC_NODE = 156.7210
ARG_OF_PERICENTER = 310.4040
MEAN_ANOMALY   = 166.8656

EPHEMERIS_TYPE = 0
CLASSIFICATION_TYPE = U
NORAD_CAT_ID   = 21938
ELEMENT_SET_NO = 999
REV_AT_EPOCH   = 70058
BSTAR          = .96012E-4
MEAN_MOTION_DOT = .108E-5
MEAN_MOTION_DDOT = 0

CCSDS_OMM_VERS = 2.0
CREATION_DATE  = 
ORIGINATOR     = 

OBJECT_NAME    = USA 81
OBJECT_ID      = 1992-023A
CENTER_NAME    = EARTH
REF_FRAME      = TEME
TIME_SYSTEM    = UTC
MEAN_ELEMENT_THEORY = SGP/SGP4

EPOCH          = 2026-03-05T16:14:45.355776
MEAN_MOTION    = 14.32366484
ECCENTRICITY   = .0002571
INCLINATION    = 85.0092
RA_OF_ASC_NODE = 133.7560
ARG_OF_PERICENTER = 80.6897
MEAN_ANOMALY   = 279.4586

EPHEMERIS_TYPE = 0
CLASSIFICATION_TYPE = U
NORAD_CAT_ID   = 21949
ELEMENT_SET_NO = 999
REV_AT_EPOCH   = 9421
BSTAR          = .82214E-4
MEAN_MOTION_DOT = .242E-5
MEAN_MOTION_DDOT = 0

CCSDS_OMM_VERS = 2.0
CREATION_DATE  = 
ORIGINATOR     = 

OBJECT_NAME    = COSMOS 2219
OBJECT_ID      = 1992-076A
CENTER_NAME    = EARTH
REF_FRAME      = TEME
TIME_SYSTEM    = UTC
MEAN_ELEMENT_THEORY = SGP/SGP4

EPOCH          = 2026-03-05T08:20:20.103360
MEAN_MOTION    = 14.14090569
ECCENTRICITY   = .0019249
INCLINATION    = 71.0624
RA_OF_ASC_NODE = 27.1440
ARG_OF_PERICENTER = 212.8488
MEAN_ANOMALY   = 147.1440

EPHEMERIS_TYPE = 0
CLASSIFICATION_TYPE = U
NORAD_CAT_ID   = 22219
ELEMENT_SET_NO = 999
REV_AT_EPOCH   = 71776
BSTAR          = .17249E-3
MEAN_MOTION_DOT = .282E-5
MEAN_MOTION_DDOT = 0

CCSDS_OMM_VERS = 2.0
CREATION_DATE  = 
ORIGINATOR     = 

OBJECT_NAME    = SL-16 R/B
OBJECT_ID      = 1992-076B
CENTER_NAME    = EARTH
REF_FRAME      = TEME
TIME_SYSTEM    = UTC
MEAN_ELEMENT_THEORY = SGP/SGP4

EPOCH          = 2026-03-05T16:18:15.034752
MEAN_MOTION    = 14.16860255
ECCENTRICITY   = .001051
INCLINATION    = 71.0002
RA_OF_ASC_NODE = 196.8203
ARG_OF_PERICENTER = 103.7880
MEAN_ANOMALY   = 352.7880

EPHEMERIS_TYPE = 0
CLASSIFICATION_TYPE = U
NORAD_CAT_ID   = 22220
ELEMENT_SET_NO = 999
REV_AT_EPOCH   = 72126
BSTAR          = .13476E-5
MEAN_MOTION_DOT = -.45E-6
MEAN_MOTION_DDOT = 0

CCSDS_OMM_VERS = 2.0
CREATION_DATE  = 
ORIGINATOR     = 

OBJECT_NAME    = COSMOS 2221
OBJECT_ID      = 1992-080A
CENTER_NAME    = EARTH
REF_FRAME      = TEME
TIME_SYSTEM    = UTC
MEAN_ELEMENT_THEORY = SGP/SGP4

EPOCH          = 2026-03-05T16:35:50.156736
MEAN_MOTION    = 14.96183542
ECCENTRICITY   = .0013677
INCLINATION    = 82.5012
RA_OF_ASC_NODE = 282.9117
ARG_OF_PERICENTER = 201.0010
MEAN_ANOMALY   = 159.0652

EPHEMERIS_TYPE = 0
CLASSIFICATION_TYPE = U
NORAD_CAT_ID   = 22236
ELEMENT_SET_NO = 999
REV_AT_EPOCH   = 78019
BSTAR          = .23393E-3
MEAN_MOTION_DOT = .2665E-4
MEAN_MOTION_DDOT = 0

CCSDS_OMM_VERS = 2.0
CREATION_DATE  = 
ORIGINATOR     = 

OBJECT_NAME    = SL-16 R/B
OBJECT_ID      = 1992-093B
CENTER_NAME    = EARTH
REF_FRAME      = TEME
TIME_SYSTEM    = UTC
MEAN_ELEMENT_THEORY = SGP/SGP4

EPOCH          = 2026-03-05T13:40:44.669280
MEAN_MOTION    = 14.15449187
ECCENTRICITY   = .000635
INCLINATION    = 71.0239
RA_OF_ASC_NODE = 12.9132
ARG_OF_PERICENTER = 298.0914
MEAN_ANOMALY   = 61.9567

EPHEMERIS_TYPE = 0
CLASSIFICATION_TYPE = U
NORAD_CAT_ID   = 22285
ELEMENT_SET_NO = 999
REV_AT_EPOCH   = 71257
BSTAR          = -.63522E-4
MEAN_MOTION_DOT = -.172E-5
MEAN_MOTION_DDOT = 0

CCSDS_OMM_VERS = 2.0
CREATION_DATE  = 
ORIGINATOR     = 

OBJECT_NAME    = COSMOS 2228
OBJECT_ID      = 1992-094A
CENTER_NAME    = EARTH
REF_FRAME      = TEME
TIME_SYSTEM    = UTC
MEAN_ELEMENT_THEORY = SGP/SGP4

EPOCH          = 2026-03-05T17:03:12.473856
MEAN_MOTION    = 14.97167509
ECCENTRICITY   = .0017028
INCLINATION    = 82.5148
RA_OF_ASC_NODE = 241.1211
ARG_OF_PERICENTER = 318.8824
MEAN_ANOMALY   = 41.1114

EPHEMERIS_TYPE = 0
CLASSIFICATION_TYPE = U
NORAD_CAT_ID   = 22286
ELEMENT_SET_NO = 999
REV_AT_EPOCH   = 77546
BSTAR          = .29499E-3
MEAN_MOTION_DOT = .3443E-4
MEAN_MOTION_DDOT = 0

